NORAD_CAT_ID,OBJECT_NAME,OBJECT_TYPE,EPOCH,MEAN_MOTION,ECCENTRICITY,INCLINATION,RA_OF_ASC_NODE,ARG_OF_PERICENTER,MEAN_ANOMALY,BSTAR,MEAN_MOTION_DOT,MEAN_MOTION_DDOT,TLE_LINE0,TLE_LINE1,TLE_LINE2,SEMIMAJOR_AXIS,PERIOD,APOGEE,PERIGEE,DECAYED
52615.0,STARLINK-4011,PAYLOAD,2022-05-20 16:00:00,15.80279178,9.44e-05,53.2173,50.8468,92.7671,308.3914,-0.0050421,-0.00875918,0.0,0 STARLINK-4011,1 52615U 22052T   22140.66667824 -.00875918  00000-0 -50421-2 0  9998,2 52615  53.2173  50.8468 0000944  92.7671 308.3914 15.80279178  1302,6707.788000000001,91.123,330.286,329.019,0.0
52615.0,STARLINK-4011,PAYLOAD,2022-05-21 20:00:01,15.78077836,0.0001192,53.2178,45.0229,90.0653,107.4592,-0.0055735,-0.00875576,0.0,0 STARLINK-4011,1 52615U 22052T   22141.83334491 -.00875576  00000-0 -55735-2 0  9992,2 52615  53.2178  45.0229 0001192  90.0653 107.4592 15.78077836  1488,6714.024,91.25,336.689,335.089,0.0
52615.0,STARLINK-4011,PAYLOAD,2022-05-21 22:00:00,15.77921142,0.0001049,53.2176,44.6083,93.7327,217.463,-0.0056226,-0.00876865,0.0,0 STARLINK-4011,1 52615U 22052T   22141.91667824 -.00876865  00000-0 -56226-2 0  9998,2 52615  53.2176  44.6083 0001049  93.7327 217.4630 15.77921142  1301,6714.469,91.259,337.038,335.629,0.0
52615.0,STARLINK-4011,PAYLOAD,2022-05-22 14:00:01,15.76661092,0.0001069,53.2172,41.2878,94.7157,44.1543,-0.0059296,-0.00874148,0.0,0 STARLINK-4011,1 52615U 22052T   22142.58334491 -.00874148  00000-0 -59296-2 0  9995,2 52615  53.2172  41.2878 0001069  94.7157  44.1543 15.76661092  1308,6718.045999999999,91.332,340.629,339.19199999999995,0.0
52615.0,STARLINK-4011,PAYLOAD,2022-05-22 20:00:01,15.7619016,0.0001091,53.2174,40.0455,85.9679,32.4988,-0.0060665,-0.00875615,0.0,0 STARLINK-4011,1 52615U 22052T   22142.83334491 -.00875615  00000-0 -60665-2 0  9995,2 52615  53.2174  40.0455 0001091  85.9679  32.4988 15.76190160  1647,6719.384,91.36,341.982,340.515,0.0
52615.0,STARLINK-4011,PAYLOAD,2022-05-22 22:00:01,15.76030704,0.0001187,53.2174,39.6319,91.4227,140.2148,-0.0060843,-0.00872364,0.0,0 STARLINK-4011,1 52615U 22052T   22142.91668981 -.00872364  00000-0 -60843-2 0  9994,2 52615  53.2174  39.6319 0001187  91.4227 140.2148 15.76030704  1303,6719.837,91.369,342.499,340.904,0.0
52615.0,STARLINK-4011,PAYLOAD,2022-05-23 14:00:01,15.74772923,0.0001,53.2173,36.3206,110.898,303.8106,-0.0064432,-0.00873749,0.0,0 STARLINK-4011,1 52615U 22052T   22143.58334491 -.00873749  00000-0 -64432-2 0  9990,2 52615  53.2173  36.3206 0001000 110.8980 303.8106 15.74772923  1302,6723.4140000000025,91.442,345.952,344.607,0.0
52615.0,STARLINK-4011,PAYLOAD,2022-05-23 20:00:01,15.74303832,9.96e-05,53.2177,35.082,100.0677,292.5353,-0.0066117,-0.00877932,0.0,0 STARLINK-4011,1 52615U 22052T   22143.83334491 -.00877932  00000-0 -66117-2 0  9998,2 52615  53.2177  35.0820 0000996 100.0677 292.5353 15.74303832  1803,6724.75,91.469,347.285,345.945,0.0
52615.0,STARLINK-4011,PAYLOAD,2022-05-23 22:00:01,15.74143593,0.0001138,53.2174,34.6695,90.6149,54.5916,-0.0066259,-0.00874141,0.0,0 STARLINK-4011,1 52615U 22052T   22143.91668981 -.00874141  00000-0 -66259-2 0  9997,2 52615  53.2174  34.6695 0001138  90.6149  54.5916 15.74143593  1304,6725.206,91.478,347.837,346.306,0.0
52615.0,STARLINK-4011,PAYLOAD,2022-05-24 04:00:00,15.73515363,0.0001081,53.2173,33.4318,118.7772,3.7198,-0.0032022,-0.00433453,0.0,0 STARLINK-4011,1 52615U 22052T   22144.16667824 -.00433453  00000-0 -32022-2 0  9998,2 52615  53.2173  33.4318 0001081 118.7772   3.7198 15.73515363  1858,6726.996,91.515,349.588,348.134,0.0
52615.0,STARLINK-4011,PAYLOAD,2022-05-24 12:00:00,15.73204371,0.0001165,53.2174,31.7797,110.779,100.831,4.3021e-06,-1.6e-07,0.0,0 STARLINK-4011,1 52615U 22052T   22144.50001157 -.00000016  00000-0  43021-5 0  9995,2 52615  53.2174  31.7797 0001165 110.7790 100.8310 15.73204371  1901,6727.8830000000025,91.533,350.532,348.964,0.0
52615.0,STARLINK-4011,PAYLOAD,2022-05-24 14:00:01,15.7320381,0.0001208,53.2173,31.367,115.7691,208.0751,4.0899e-06,-4.6e-07,0.0,0 STARLINK-4011,1 52615U 22052T   22144.58334491 -.00000046  00000-0  40899-5 0  9996,2 52615  53.2173  31.3670 0001208 115.7691 208.0751 15.73203810  1300,6727.884,91.533,350.56199999999984,348.93699999999984,0.0
52615.0,STARLINK-4011,PAYLOAD,2022-05-24 20:00:01,15.73278944,0.0001048,53.2145,30.1345,121.7995,178.9807,-0.00063657,-0.00089313,0.0,0 STARLINK-4011,1 52615U 22052T   22144.83335648 -.00089313  00000-0 -63657-3 0  9999,2 52615  53.2145  30.1345 0001048 121.7995 178.9807 15.73278944  1959,6727.67,91.529,350.24,348.83,0.0
52615.0,STARLINK-4011,PAYLOAD,2022-05-24 22:00:00,15.73253474,9.35e-05,53.2145,29.7227,119.4187,293.5504,-0.00039218,-0.00055422,0.0,0 STARLINK-4011,1 52615U 22052T   22144.91667824 -.00055422  00000-0 -39218-3 0  9992,2 52615  53.2145  29.7227 0000935 119.4187 293.5504 15.73253474  1301,6727.743,91.53,350.237,348.97900000000016,0.0
52615.0,STARLINK-4011,PAYLOAD,2022-05-25 12:00:00,15.73155693,0.0001077,53.2157,26.8328,118.7307,359.927,-4.506e-05,-6.926e-05,0.0,0 STARLINK-4011,1 52615U 22052T   22145.50001157 -.00006926  00000-0 -45060-4 0  9997,2 52615  53.2157  26.8328 0001077 118.7307 359.9270 15.73155693  2063,6728.021,91.536,350.611,349.162,0.0
52615.0,STARLINK-4011,PAYLOAD,2022-05-25 14:00:01,15.73178168,0.0001158,53.2158,26.4195,122.3832,108.4915,-0.00058204,-0.00081441,0.0,0 STARLINK-4011,1 52615U 22052T   22145.58334491 -.00081441  00000-0 -58204-3 0  9993,2 52615  53.2158  26.4195 0001158 122.3832 108.4915 15.73178168  1307,6727.956999999999,91.534,350.602,349.043,0.0
52615.0,STARLINK-4011,PAYLOAD,2022-05-25 20:00:01,15.73152187,0.0001168,53.2169,25.182,106.3272,101.2457,-0.0026813,-0.00360494,0.0,0 STARLINK-4011,1 52615U 22052T   22145.83334491 -.00360494  00000-0 -26813-2 0  9999,2 52615  53.2169  25.1820 0001168 106.3272 101.2457 15.73152187  2116,6728.031,91.536,350.682,349.111,0.0
52615.0,STARLINK-4011,PAYLOAD,2022-05-25 20:38:47,15.7322171,9.33e-05,53.2151,25.0488,107.4367,252.6756,0.0001664,0.00022818,0.0,0 STARLINK-4011,1 52615U 22052T   22145.86026731  .00022818  00000-0  16640-3 0  9998,2 52615  53.2151  25.0488 0000933 107.4367 252.6756 15.73221710  1742,6727.833000000001,91.532,350.326,349.071,0.0
52615.0,STARLINK-4011,PAYLOAD,2022-05-26 04:00:00,15.7308578,0.0001262,53.2172,23.5321,130.0839,166.1728,-0.0066271999999999,-0.00838761,0.0,0 STARLINK-4011,1 52615U 22052T   22146.16667824 -.00838761  00000-0 -66272-2 0  9995,2 52615  53.2172  23.5321 0001262 130.0839 166.1728 15.73085780  2166,6728.221,91.54,350.935,349.237,0.0
52615.0,STARLINK-4011,PAYLOAD,2022-05-26 08:50:45,15.72961635,0.0004511,53.2157,22.5373,81.5231,278.63,-0.00069997,-0.00096817,0.0,0 STARLINK-4011,1 52615U 22052T   22146.36858293 -.00096817  00000-0 -69997-3 0  9995,2 52615  53.2157  22.5373 0004511  81.5231 278.6300 15.72961635  1829,6728.575,91.547,353.475,347.405,0.0
52615.0,STARLINK-4011,PAYLOAD,2022-05-26 22:34:32,15.72368674,0.0001961,53.2159,19.7099,156.7786,203.3323,-0.0014922,-0.00198059,0.0,0 STARLINK-4011,1 52615U 22052T   22146.94064874 -.00198059  00000-0 -14922-2 0  9991,2 52615  53.2159  19.7099 0001961 156.7786 203.3323 15.72368674  1914,6730.266,91.582,353.451,350.81199999999984,0.0
52615.0,STARLINK-4011,PAYLOAD,2022-05-27 01:37:42,15.7194141,0.0001962,53.2162,19.0816,84.5482,275.5761,-0.0029156,-0.00371776,0.0,0 STARLINK-4011,1 52615U 22052T   22147.06785551 -.00371776  00000-0 -29156-2 0  9991,2 52615  53.2162  19.0816 0001962  84.5482 275.5761 15.71941410  2305,6731.486,91.606,354.672,352.03,0.0
52615.0,STARLINK-4011,PAYLOAD,2022-05-27 12:00:00,15.70690231,0.0001215,53.2173,16.9392,118.4034,167.2298,-0.0072405,-0.0082836,0.0,0 STARLINK-4011,1 52615U 22052T   22147.50001157 -.00828360  00000-0 -72405-2 0  9994,2 52615  53.2173  16.9392 0001215 118.4034 167.2298 15.70690231  2373,6735.06,91.679,357.74300000000005,356.107,0.0
52615.0,STARLINK-4011,PAYLOAD,2022-05-27 14:00:01,15.70541154,0.00011,53.2174,16.528,117.223,279.8649,-0.007292,-0.00828929,0.0,0 STARLINK-4011,1 52615U 22052T   22147.58334491 -.00828929  00000-0 -72920-2 0  9995,2 52615  53.2174  16.5280 0001100 117.2230 279.8649 15.70541154  1305,6735.486,91.688,358.092,356.61,0.0
52615.0,STARLINK-4011,PAYLOAD,2022-05-27 21:28:47,15.70559395,7.509999999999998e-05,53.216,15.0037,127.0827,233.0261,-0.0035014,-0.00418634,0.0,0 STARLINK-4011,1 52615U 22052T   22147.89499663 -.00418634  00000-0 -35014-2 0  9993,2 52615  53.2160  15.0037 0000751 127.0827 233.0261 15.70559395  2439,6735.434,91.687,357.805,356.793,0.0
52615.0,STARLINK-4011,PAYLOAD,2022-05-27 22:00:01,15.69946493,0.0001143,53.2174,14.8863,89.1256,33.3963,-0.0075048999999999,-0.00831784,0.0,0 STARLINK-4011,1 52615U 22052T   22147.91668981 -.00831784  00000-0 -75049-2 0  9994,2 52615  53.2174  14.8863 0001143  89.1256  33.3963 15.69946493  1300,6737.187,91.723,359.82199999999995,358.282,0.0
52615.0,STARLINK-4011,PAYLOAD,2022-05-28 03:35:09,15.71212673,0.0002767,53.2158,13.7478,260.1084,99.9623,6.2377e-05,7.45e-05,0.0,0 STARLINK-4011,1 52615U 22052T   22148.14942077  .00007450  00000-0  62377-4 0  9996,2 52615  53.2158  13.7478 0002767 260.1084  99.9623 15.71212673  2474,6733.566999999999,91.649,357.295,353.569,0.0
52615.0,STARLINK-4011,PAYLOAD,2022-05-28 12:00:00,15.68901216,0.0001202,53.2172,12.0115,102.953,77.1778,-0.0078187,-0.00829789,0.0,0 STARLINK-4011,1 52615U 22052T   22148.50001157 -.00829789  00000-0 -78187-2 0  9994,2 52615  53.2172  12.0115 0001202 102.9530  77.1778 15.68901216  2532,6740.179,91.784,362.854,361.234,0.0
52615.0,STARLINK-4011,PAYLOAD,2022-05-28 14:00:01,15.68751386,0.0001222,53.2175,11.6013,111.1422,179.9057,-0.0078561999999999,-0.00828714,0.0,0 STARLINK-4011,1 52615U 22052T   22148.58334491 -.00828714  00000-0 -78562-2 0  9996,2 52615  53.2175  11.6013 0001222 111.1422 179.9057 15.68751386  1307,6740.608,91.793,363.297,361.65,0.0
